{
  "norad_id": 65659,
  "name": "STARLINK-35120",
  "history": [
    {
      "epoch": "2026-03-28T20:21:43.696224Z",
      "apogee_km": 550.8940236713615,
      "perigee_km": 548.0962301605841,
      "latitude_deg": 8.084987170480489e-06,
      "longitude_deg": 1.2404521340360857,
      "height_km": 553.2913866655332,
      "semi_major_axis_km": 6927.632126915973,
      "eccentricity": 0.00020193,
      "inclination_deg": 97.6036,
      "raan_deg": 132.9355,
      "arg_perigee_deg": 121.6342,
      "mean_anomaly_deg": 238.5082,
      "mean_motion_rev_day": 15.05655225
    },
    {
      "epoch": "2026-03-29T02:44:31.611264Z",
      "apogee_km": 550.889255585319,
      "perigee_km": 548.0891090824189,
      "latitude_deg": 4.3095189046846414e-05,
      "longitude_deg": -94.4591148355485,
      "height_km": 553.3103032053149,
      "semi_major_axis_km": 6927.626182333868,
      "eccentricity": 0.0002021,
      "inclination_deg": 97.6038,
      "raan_deg": 133.1976,
      "arg_perigee_deg": 122.8054,
      "mean_anomaly_deg": 237.3368,
      "mean_motion_rev_day": 15.05657163
    },
    {
      "epoch": "2026-03-30T02:40:01.691616Z",
      "apogee_km": 550.898477887361,
      "perigee_km": 548.119106395553,
      "latitude_deg": -7.189930598172991e-05,
      "longitude_deg": -93.3350995431687,
      "height_km": 553.2892715349491,
      "semi_major_axis_km": 6927.645792141457,
      "eccentricity": 0.0002006,
      "inclination_deg": 97.6033,
      "raan_deg": 134.1795,
      "arg_perigee_deg": 121.1048,
      "mean_anomaly_deg": 239.0375,
      "mean_motion_rev_day": 15.0565077
    },
    {
      "epoch": "2026-03-30T02:40:01.693344Z",
      "apogee_km": 550.8984086109022,
      "perigee_km": 548.1191756720118,
      "latitude_deg": -7.091968480725932e-05,
      "longitude_deg": -93.33510689293094,
      "height_km": 553.2892357382465,
      "semi_major_axis_km": 6927.645792141457,
      "eccentricity": 0.00020059,
      "inclination_deg": 97.6033,
      "raan_deg": 134.1795,
      "arg_perigee_deg": 121.1048,
      "mean_anomaly_deg": 239.0375,
      "mean_motion_rev_day": 15.0565077
    }
  ]
}